satname,norad_id,inclination_deg,eccentricity,mean_motion_rev_per_day,perigee_km,apogee_km,l1,l2
STARLINK-1184,45098,53.0547,0.0004211,15.08936973,536.5340025507076,542.359991793126,1 45098U 20006BG  26035.36524036  .00030393  00000+0  19140-2 0  9993,2 45098  53.0547  35.7686 0004211  39.0846 321.0447 15.08936973332005
STARLINK-1193,45100,53.0554,0.0004227,15.46266895,424.7812842013327,430.534903373622,1 45100U 20006BJ  26035.91670139  .00144670  00000+0  28460-2 0  9993,2 45100  53.0554  27.7175 0004227  78.2869  22.9046 15.46266895  5716
STARLINK-1143,45179,53.049,0.000379,15.56231338,396.0072679632931,401.14401614597045,1 45179U 20012B   26035.54486650  .00053809  00000+0  75492-3 0  9999,2 45179  53.0490 131.0542 0003790 306.6084  53.4577 15.56231338330757
STARLINK-1202,45183,53.1579,0.000412,15.29906938,473.2662977816208,478.9141810268902,1 45183U 20012F   26035.63799022  .00180415  00000+0  60107-2 0  9994,2 45183  53.1579 192.7586 0004120  99.2884 260.8582 15.29906938329892
STARLINK-1216,45185,53.1618,0.0001264,15.30199634,474.3498983898644,476.08242606927615,1 45185U 20012H   26035.69505893  .00000276  00000+0  21433-4 0  9990,2 45185  53.1618 192.4841 0001264  73.5682 286.5457 15.30199634329846
STARLINK-1225,45187,53.1594,0.0001297,15.30207139,474.30487673624975,476.0826307337693,1 45187U 20012K   26035.69197231 -.00003888  00000+0 -11918-3 0  9995,2 45187  53.1594 192.9371 0001297  79.9482 280.1665 15.30207139329883
STARLINK-1230,45189,53.1606,0.0001195,15.30176946,474.4649215738564,476.1028891702417,1 45189U 20012M   26035.91670139  .00058220  00000+0  19639-2 0  9990,2 45189  53.1606 191.9559 0001195  67.0775  39.3487 15.30176946  5840
STARLINK-1234,45190,53.0458,0.0007756,15.5485023,397.3288968911056,407.847157553334,1 45190U 20012N   26035.91670139  .00082998  00000+0  12157-2 0  9999,2 45190  53.0458 124.5691 0007756 212.5212 354.1790 15.54850230  5854
STARLINK-1269,45197,53.1613,0.000131,15.30165777,474.41945252566893,476.2150575404885,1 45197U 20012V   26035.91670139  .00058594  00000+0  19770-2 0  9999,2 45197  53.1613 191.8145 0001310  78.9321  45.0375 15.30165777  5787
STARLINK-1154,45198,53.0502,0.0003164,15.41034951,440.8953324670356,445.21178185160625,1 45198U 20012W   26035.66148961  .00099383  00000+0  23497-2 0  9997,2 45198  53.0502 166.9314 0003164 332.3172  27.7663 15.41034951330199
STARLINK-1199,45201,53.0557,0.000137,15.06395391,546.2769092077815,548.1744585831693,1 45201U 20012Z   26035.69367426  .00000527  00000+0  54299-4 0  9992,2 45201  53.0557 174.7452 0001370  93.3931 266.7214 15.06395391330149
STARLINK-1209,45206,53.048,0.0009921,15.45132249,424.2341779343742,437.74484676017346,1 45206U 20012AE  26035.91670139  .00062283  00000+0  12907-2 0  9995,2 45206  53.0480 130.2315 0009921 190.0418  34.4479 15.45132249  5886
STARLINK-1210,45207,53.0112,0.0007642,15.9103689,294.27713461486746,304.48305174008055,1 45207U 20012AF  26035.91670139  .00341633  54784-4  10640-2 0  9990,2 45207  53.0112  68.5251 0007642  24.5414 232.2571 15.91036890  5995
STARLINK-1231,45212,53.0488,0.0001213,15.18526189,509.4585061841717,511.1296395624504,1 45212U 20012AL  26035.79593951  .00034584  00000+0  16622-2 0  9995,2 45212  53.0488 166.5245 0001213 287.9433  72.1429 15.18526189330227
STARLINK-1271,45217,53.0577,0.0002731,15.06390772,545.3485201584217,549.1311609887425,1 45217U 20012AR  26035.61258512 -.00003900  00000+0 -24307-3 0  9992,2 45217  53.0577 175.1095 0002731 103.5908 256.5385 15.06390772330139
STARLINK-1191,45222,53.1634,0.0001488,15.30980988,471.8647394224763,473.9036033230768,1 45222U 20012AW  26035.63132825  .00006452  00000+0  22438-3 0  9994,2 45222  53.1634 152.5020 0001488  62.3924 297.7228 15.30980988330454
STARLINK-1212,45223,53.054,0.0001972,15.42259572,438.0977717129281,440.7866249487497,1 45223U 20012AX  26035.83488263  .00103959  00000+0  23581-2 0  9996,2 45223  53.0540 146.9792 0001972 341.9506  18.1428 15.42259572330552
STARLINK-1215,45225,53.1587,0.0001266,15.3008333,474.6957686679325,476.4311256211495,1 45225U 20012AZ  26035.60645049  .00090281  00000+0  30344-2 0  9998,2 45225  53.1587 151.9747 0001266  73.5074 286.6066 15.30083330330415
STARLINK-1221,45227,53.0659,0.0001782,15.40623398,443.052532060271,445.4840373037314,1 45227U 20012BB  26035.51674905  .00017287  00000+0  42690-3 0  9996,2 45227  53.0659  66.6541 0001782 290.0988  69.9824 15.40623398331592
STARLINK-1222,45228,53.0569,0.0001127,15.46697021,425.6294006188218,427.1631424182224,1 45228U 20012BC  26035.76497367  .00042909  00000+0  84890-3 0  9996,2 45228  53.0569 140.3738 0001127  48.6083 311.5020 15.46697021330523
STARLINK-1226,45229,53.1613,0.00013,15.31040636,471.81562074777776,473.59683998767196,1 45229U 20012BD  26035.91670139 -.00002879  00000+0 -82822-4 0  9992,2 45229  53.1613 150.9744 0001300  78.8155 323.4551 15.31040636  5772
STARLINK-1227,45230,53.1595,0.0001254,15.3103018,471.8783220600062,473.59652136497243,1 45230U 20012BE  26035.61032609  .00011334  00000+0  38429-3 0  9992,2 45230  53.1595 152.7115 0001254  63.6250 296.4879 15.31030180330463
STARLINK-1246,45235,53.1582,0.0001342,15.2934862,476.8382547084839,478.6783770112597,1 45235U 20012BK  26035.70537317 -.00003548  00000+0 -11071-3 0  9997,2 45235  53.1582 192.4331 0001342  83.1753 276.9400 15.29348620329928
STARLINK-1270,45237,53.0529,0.0001807,15.41489008,440.4816561947064,442.9463503472889,1 45237U 20012BM  26035.57331193  .00031062  00000+0  73653-3 0  9992,2 45237  53.0529 145.0698 0001807 260.8447  99.2353 15.41489008330554
STARLINK-1279,45360,53.0456,0.0007714,15.50585379,409.77558650518586,420.25606268296997,1 45360U 20019A   26035.83429758  .00101545  00000+0  17286-2 0  9993,2 45360  53.0456 257.3232 0007714 107.7174 252.4677 15.50585379325565
STARLINK-1301,45361,53.0435,0.0009903,15.56523797,391.0166157029289,404.43689145326607,1 45361U 20019B   26035.81530129  .00103154  00000+0  14142-2 0  9993,2 45361  53.0435 264.4594 0009903  97.5060 262.7076 15.56523797325474
STARLINK-1262,45366,53.0539,0.0001204,15.06414205,546.3342152766345,548.0018287259327,1 45366U 20019G   26035.18685188  .00004180  00000+0  29920-3 0  9994,2 45366  53.0539 317.0172 0001204 100.2589 259.8536 15.06414205324683
STARLINK-1273,45367,53.0544,0.0001914,15.40235866,444.10657964524125,446.7186344348156,1 45367U 20019H   26035.91670139  .00009505  00000+0  24240-3 0  9992,2 45367  53.0544 310.2600 0001914 101.9873 127.3950 15.40235866  5848
STARLINK-1276,45368,53.0555,0.0001616,15.06400455,546.0910273275513,548.3292995307711,1 45368U 20019J   26035.51122450 -.00000581  00000+0 -20094-4 0  9998,2 45368  53.0555 315.5628 0001616  87.5613 272.5561 15.06400455324732
STARLINK-1277,45369,53.0555,0.0002002,15.4386505,433.35100792124103,436.0788738383699,1 45369U 20019K   26035.46444198  .00056644  00000+0  12290-2 0  9995,2 45369  53.0555 311.0559 0002002  49.6891 310.4289 15.43865050324796
STARLINK-1281,45370,53.0535,0.0001396,15.06395887,546.2573833011229,548.190944138034,1 45370U 20019L   26035.16842367 -.00000738  00000+0 -30687-4 0  9991,2 45370  53.0535 317.1030 0001396  84.7967 275.3181 15.06395887324689
STARLINK-1300,45374,53.0547,0.00017,15.06422314,545.965871957439,548.3204672150978,1 45374U 20019Q   26035.19054291  .00008898  00000+0  61513-3 0  9993,2 45374  53.0547 317.0003 0001700  96.3480 263.7702 15.06422314324689
STARLINK-1302,45375,53.0551,0.0001202,15.43806065,434.06954889400185,435.70740021808524,1 45375U 20019R   26035.18230382  .00079294  00000+0  17152-2 0  9997,2 45375  53.0551 311.8775 0001202  99.0877 261.0264 15.43806065324752
STARLINK-1304,45376,53.0553,0.0005628,15.42674742,434.38271788332804,442.05520815530235,1 45376U 20019S   26035.46722603  .00047858  00000+0  10830-2 0  9998,2 45376  53.0553 307.7871 0005628 105.9987 254.1638 15.42674742324832
STARLINK-1305,45377,53.0484,0.0006069,15.46541309,422.7230539428583,430.9829508077419,1 45377U 20019T   26035.43180641  .00081575  00000+0  16059-2 0  9999,2 45377  53.0484 291.7813 0006069  67.3085 292.8562 15.46541309325061
STARLINK-1319,45379,53.05,0.000724,15.5214725,405.54297728411166,415.3728627282808,1 45379U 20019V   26035.00002315  .00082405  00000+0  13316-2 0  9991,2 45379  53.0500 293.0983 0007240  81.9487  73.8856 15.52147250  5900
STARLINK-1266,45383,53.0539,0.0002173,15.41632764,439.80817148532697,442.7718944738599,1 45383U 20019Z   26035.10839148  .00033727  00000+0  79481-3 0  9998,2 45383  53.0539 292.4229 0002173 110.3055 249.8183 15.41632764325013
STARLINK-1267,45384,53.0549,0.0007903,15.43612283,430.07387370929973,440.843443006901,1 45384U 20019AA  26034.11318136  .00081538  00000+0  17729-2 0  9997,2 45384  53.0549 292.0717 0007903 113.8163 246.3672 15.43612283324938
STARLINK-1272,45386,53.0465,0.000718,15.49495506,413.3210933392411,423.080634511839,1 45386U 20019AC  26035.84669279  .00091588  00000+0  16234-2 0  9993,2 45386  53.0465 268.0960 0007180  86.7012 273.4817 15.49495506325428
STARLINK-1274,45387,53.0307,0.0011294,15.42184069,431.96469016999527,447.3647406848022,1 45387U 20019AD  26035.33856176  .00044332  00000+0  10193-2 0  9995,2 45387  53.0307 261.7904 0011294 117.4459 242.7695 15.42184069325469
STARLINK-1280,45388,53.047,0.0007215,15.58257765,387.8140526298075,397.58436928221727,1 45388U 20019AE  26035.83042475  .00109974  00000+0  14129-2 0  9997,2 45388  53.0470 283.0773 0007215  87.8925 272.2913 15.58257765325202
STARLINK-1283,45389,53.0482,0.0012621,15.49264012,410.29934916853017,427.4563740822441,1 45389U 20019AF  26035.83010214  .00090464  00000+0  16136-2 0  9997,2 45389  53.0482 268.3376 0012621 116.7484 243.4816 15.49264012325429
STARLINK-1284,45390,53.0523,0.0003019,15.45737118,427.1579185562787,431.2681965210195,1 45390U 20019AG  26034.86252450  .00091208  00000+0  18433-2 0  9990,2 45390  53.0523 292.9839 0003019 112.2306 247.9021 15.45737118324984
